{
  "links" : {
    "next" : "https://api.nasa.gov/neo/rest/v1/feed?start_date=2005-06-09&end_date=2005-06-09&detailed=true&api_key=t0TVs3DtDT2H8Oy2Zy8m2eVrNsAVKAexjcZXUckd",
    "prev" : "https://api.nasa.gov/neo/rest/v1/feed?start_date=2005-06-07&end_date=2005-06-07&detailed=true&api_key=t0TVs3DtDT2H8Oy2Zy8m2eVrNsAVKAexjcZXUckd",
    "self" : "https://api.nasa.gov/neo/rest/v1/feed?start_date=2005-06-08&end_date=2005-06-08&detailed=true&api_key=t0TVs3DtDT2H8Oy2Zy8m2eVrNsAVKAexjcZXUckd"
  },
  "element_count" : 9,
  "near_earth_objects" : {
    "2005-06-08" : [ {
      "links" : {
        "self" : "https://api.nasa.gov/neo/rest/v1/neo/3141525?api_key=t0TVs3DtDT2H8Oy2Zy8m2eVrNsAVKAexjcZXUckd"
      },
      "neo_reference_id" : "3141525",
      "name" : "(2002 UQ12)",
      "nasa_jpl_url" : "http://ssd.jpl.nasa.gov/sbdb.cgi?sstr=3141525",
      "absolute_magnitude_h" : 22.4,
      "estimated_diameter" : {
        "kilometers" : {
          "estimated_diameter_min" : 0.0880146521,
          "estimated_diameter_max" : 0.1968067451
        },
        "meters" : {
          "estimated_diameter_min" : 88.0146520901,
          "estimated_diameter_max" : 196.8067450894
        },
        "miles" : {
          "estimated_diameter_min" : 0.0546897524,
          "estimated_diameter_max" : 0.122290004
        },
        "feet" : {
          "estimated_diameter_min" : 288.7619911632,
          "estimated_diameter_max" : 645.6914415591
        }
      },
      "is_potentially_hazardous_asteroid" : false,
      "close_approach_data" : [ {
        "close_approach_date" : "2005-06-08",
        "epoch_date_close_approach" : 1118214000000,
        "relative_velocity" : {
          "kilometers_per_second" : "32.842942636",
          "kilometers_per_hour" : "118234.593489578",
          "miles_per_hour" : "73466.3783824548"
        },
        "miss_distance" : {
          "astronomical" : "0.3894814963",
          "lunar" : "151.5083007812",
          "kilometers" : "58265600",
          "miles" : "36204568"
        },
        "orbiting_body" : "Earth"
      } ],
      "orbital_data" : {
        "orbit_id" : "22",
        "orbit_determination_date" : "2017-04-06 09:14:41",
        "orbit_uncertainty" : "0",
        "minimum_orbit_intersection" : ".0265204",
        "jupiter_tisserand_invariant" : "3.788",
        "epoch_osculation" : "2458000.5",
        "eccentricity" : ".6981120519799623",
        "semi_major_axis" : "1.760333124792345",
        "inclination" : "2.853320402327223",
        "ascending_node_longitude" : "190.343849456858",
        "orbital_period" : "853.0818829169374",
        "perihelion_distance" : ".5314233548752619",
        "perihelion_argument" : "309.9001337406511",
        "aphelion_distance" : "2.989242894709427",
        "perihelion_time" : "2457747.535922125226",
        "mean_anomaly" : "106.7506764104913",
        "mean_motion" : ".4219993498971685",
        "equinox" : "J2000"
      }
    }, {
      "links" : {
        "self" : "https://api.nasa.gov/neo/rest/v1/neo/3279492?api_key=t0TVs3DtDT2H8Oy2Zy8m2eVrNsAVKAexjcZXUckd"
      },
      "neo_reference_id" : "3279492",
      "name" : "(2005 LH8)",
      "nasa_jpl_url" : "http://ssd.jpl.nasa.gov/sbdb.cgi?sstr=3279492",
      "absolute_magnitude_h" : 18.6,
      "estimated_diameter" : {
        "kilometers" : {
          "estimated_diameter_min" : 0.5064714588,
          "estimated_diameter_max" : 1.1325046106
        },
        "meters" : {
          "estimated_diameter_min" : 506.4714588346,
          "estimated_diameter_max" : 1132.5046106177
        },
        "miles" : {
          "estimated_diameter_min" : 0.3147066768,
          "estimated_diameter_max" : 0.7037055224
        },
        "feet" : {
          "estimated_diameter_min" : 1661.651821003,
          "estimated_diameter_max" : 3715.566426699
        }
      },
      "is_potentially_hazardous_asteroid" : false,
      "close_approach_data" : [ {
        "close_approach_date" : "2005-06-08",
        "epoch_date_close_approach" : 1118214000000,
        "relative_velocity" : {
          "kilometers_per_second" : "13.0771720854",
          "kilometers_per_hour" : "47077.8195073021",
          "miles_per_hour" : "29252.3262377456"
        },
        "miss_distance" : {
          "astronomical" : "0.4185048197",
          "lunar" : "162.7983856201",
          "kilometers" : "62607432",
          "miles" : "38902456"
        },
        "orbiting_body" : "Earth"
      } ],
      "orbital_data" : {
        "orbit_id" : "15",
        "orbit_determination_date" : "2017-04-06 09:10:53",
        "orbit_uncertainty" : "0",
        "minimum_orbit_intersection" : ".182139",
        "jupiter_tisserand_invariant" : "3.107",
        "epoch_osculation" : "2458000.5",
        "eccentricity" : ".5494005980501454",
        "semi_major_axis" : "2.658069041757219",
        "inclination" : "15.73339053942817",
        "ascending_node_longitude" : "86.67323087531675",
        "orbital_period" : "1582.879347874493",
        "perihelion_distance" : "1.197724320557226",
        "perihelion_argument" : "180.3768973462676",
        "aphelion_distance" : "4.118413762957212",
        "perihelion_time" : "2458274.482652251586",
        "mean_anomaly" : "297.6871301384926",
        "mean_motion" : ".2274336325654964",
        "equinox" : "J2000"
      }
    }, {
      "links" : {
        "self" : "https://api.nasa.gov/neo/rest/v1/neo/3520755?api_key=t0TVs3DtDT2H8Oy2Zy8m2eVrNsAVKAexjcZXUckd"
      },
      "neo_reference_id" : "3520755",
      "name" : "(2010 JU39)",
      "nasa_jpl_url" : "http://ssd.jpl.nasa.gov/sbdb.cgi?sstr=3520755",
      "absolute_magnitude_h" : 19.6,
      "estimated_diameter" : {
        "kilometers" : {
          "estimated_diameter_min" : 0.3195618867,
          "estimated_diameter_max" : 0.7145621017
        },
        "meters" : {
          "estimated_diameter_min" : 319.5618867213,
          "estimated_diameter_max" : 714.5621017269
        },
        "miles" : {
          "estimated_diameter_min" : 0.1985664891,
          "estimated_diameter_max" : 0.4440081677
        },
        "feet" : {
          "estimated_diameter_min" : 1048.4314204307,
          "estimated_diameter_max" : 2344.3639258298
        }
      },
      "is_potentially_hazardous_asteroid" : true,
      "close_approach_data" : [ {
        "close_approach_date" : "2005-06-08",
        "epoch_date_close_approach" : 1118214000000,
        "relative_velocity" : {
          "kilometers_per_second" : "35.2560803271",
          "kilometers_per_hour" : "126921.8891776255",
          "miles_per_hour" : "78864.3260837307"
        },
        "miss_distance" : {
          "astronomical" : "0.4601207893",
          "lunar" : "178.9869842529",
          "kilometers" : "68833096",
          "miles" : "42770900"
        },
        "orbiting_body" : "Earth"
      } ],
      "orbital_data" : {
        "orbit_id" : "23",
        "orbit_determination_date" : "2017-06-03 06:17:10",
        "orbit_uncertainty" : "1",
        "minimum_orbit_intersection" : ".00475891",
        "jupiter_tisserand_invariant" : "6.230",
        "epoch_osculation" : "2458000.5",
        "eccentricity" : ".5462468937452578",
        "semi_major_axis" : ".918931835465034",
        "inclination" : "36.21048131637093",
        "ascending_node_longitude" : "95.18686687497835",
        "orbital_period" : "321.7535691076534",
        "perihelion_distance" : ".4169681747786309",
        "perihelion_argument" : "311.38281010839",
        "aphelion_distance" : "1.420895496151437",
        "perihelion_time" : "2458084.658071564250",
        "mean_anomaly" : "265.8381672434749",
        "mean_motion" : "1.118868707496917",
        "equinox" : "J2000"
      }
    } ]
  }
}